{"fetched_at":"2026-07-21T17:53:33.243Z","source":"https://celestrak.org/NORAD/elements/gp.php?NAME=ICEYE&FORMAT=JSON","constellation":"iceye","records":[{"OBJECT_NAME":"ICEYE-X53","OBJECT_ID":"2025-135BJ","EPOCH":"2026-07-21T07:00:24.118848","CLASSIFICATION_TYPE":"U","MEAN_MOTION":15.00912792,"ECCENTRICITY":0.00022268,"INCLINATION":97.7352,"RA_OF_ASC_NODE":318.9222,"ARG_OF_PERICENTER":164.4773,"MEAN_ANOMALY":195.652,"EPHEMERIS_TYPE":0,"NORAD_CAT_ID":64584,"ELEMENT_SET_NO":999,"REV_AT_EPOCH":5919,"BSTAR":0.00018015948,"MEAN_MOTION_DOT":0.00002234,"MEAN_MOTION_DDOT":0},{"OBJECT_NAME":"ICEYE-X65","OBJECT_ID":"2025-248H","EPOCH":"2026-07-21T00:04:30.841536","CLASSIFICATION_TYPE":"U","MEAN_MOTION":15.0795244,"ECCENTRICITY":0.00060008,"INCLINATION":45.4068,"RA_OF_ASC_NODE":316.3569,"ARG_OF_PERICENTER":228.3434,"MEAN_ANOMALY":131.6935,"EPHEMERIS_TYPE":0,"NORAD_CAT_ID":66300,"ELEMENT_SET_NO":999,"REV_AT_EPOCH":4062,"BSTAR":0.00014476042,"MEAN_MOTION_DOT":0.00002011,"MEAN_MOTION_DDOT":0},{"OBJECT_NAME":"ICEYE-X66","OBJECT_ID":"2025-248J","EPOCH":"2026-07-20T08:01:04.510272","CLASSIFICATION_TYPE":"U","MEAN_MOTION":15.09198898,"ECCENTRICITY":0.00056736,"INCLINATION":45.4023,"RA_OF_ASC_NODE":318.9024,"ARG_OF_PERICENTER":221.2592,"MEAN_ANOMALY":138.7862,"EPHEMERIS_TYPE":0,"NORAD_CAT_ID":66301,"ELEMENT_SET_NO":999,"REV_AT_EPOCH":4051,"BSTAR":0.00014310579,"MEAN_MOTION_DOT":0.0000206,"MEAN_MOTION_DDOT":0},{"OBJECT_NAME":"ICEYE-X67","OBJECT_ID":"2025-248K","EPOCH":"2026-07-20T08:36:42.681312","CLASSIFICATION_TYPE":"U","MEAN_MOTION":15.09179672,"ECCENTRICITY":0.00070784,"INCLINATION":45.4071,"RA_OF_ASC_NODE":318.3531,"ARG_OF_PERICENTER":221.9188,"MEAN_ANOMALY":138.1153,"EPHEMERIS_TYPE":0,"NORAD_CAT_ID":66302,"ELEMENT_SET_NO":999,"REV_AT_EPOCH":4053,"BSTAR":0.00012540154,"MEAN_MOTION_DOT":0.00001772,"MEAN_MOTION_DDOT":0},{"OBJECT_NAME":"ICEYE-X58","OBJECT_ID":"2025-276CP","EPOCH":"2026-07-21T03:34:23.528352","CLASSIFICATION_TYPE":"U","MEAN_MOTION":15.17327754,"ECCENTRICITY":0.0002749,"INCLINATION":97.4192,"RA_OF_ASC_NODE":274.9049,"ARG_OF_PERICENTER":189.0054,"MEAN_ANOMALY":171.1131,"EPHEMERIS_TYPE":0,"NORAD_CAT_ID":66751,"ELEMENT_SET_NO":999,"REV_AT_EPOCH":3556,"BSTAR":0.000097373675,"MEAN_MOTION_DOT":0.00001876,"MEAN_MOTION_DDOT":0},{"OBJECT_NAME":"ICEYE-X59","OBJECT_ID":"2025-276CQ","EPOCH":"2026-07-21T03:30:56.716128","CLASSIFICATION_TYPE":"U","MEAN_MOTION":15.00788109,"ECCENTRICITY":0.00013265,"INCLINATION":97.4403,"RA_OF_ASC_NODE":271.9933,"ARG_OF_PERICENTER":129.3488,"MEAN_ANOMALY":230.7855,"EPHEMERIS_TYPE":0,"NORAD_CAT_ID":66752,"ELEMENT_SET_NO":999,"REV_AT_EPOCH":3536,"BSTAR":0.00025716933,"MEAN_MOTION_DOT":0.00003208,"MEAN_MOTION_DDOT":0},{"OBJECT_NAME":"ICEYE-X60","OBJECT_ID":"2025-276CR","EPOCH":"2026-07-19T18:28:39.726336","CLASSIFICATION_TYPE":"U","MEAN_MOTION":15.10668296,"ECCENTRICITY":0.00009859,"INCLINATION":97.4203,"RA_OF_ASC_NODE":272.4701,"ARG_OF_PERICENTER":344.1732,"MEAN_ANOMALY":15.9467,"EPHEMERIS_TYPE":0,"NORAD_CAT_ID":66753,"ELEMENT_SET_NO":999,"REV_AT_EPOCH":3528,"BSTAR":0.00011913217,"MEAN_MOTION_DOT":0.00001909,"MEAN_MOTION_DDOT":0},{"OBJECT_NAME":"ICEYE-X61","OBJECT_ID":"2025-276CS","EPOCH":"2026-07-21T03:53:13.451136","CLASSIFICATION_TYPE":"U","MEAN_MOTION":15.18631178,"ECCENTRICITY":0.00026563,"INCLINATION":97.4187,"RA_OF_ASC_NODE":275.0186,"ARG_OF_PERICENTER":190.1403,"MEAN_ANOMALY":169.9778,"EPHEMERIS_TYPE":0,"NORAD_CAT_ID":66754,"ELEMENT_SET_NO":999,"REV_AT_EPOCH":3557,"BSTAR":0.00010141592,"MEAN_MOTION_DOT":0.00002032,"MEAN_MOTION_DDOT":0},{"OBJECT_NAME":"ICEYE-X62","OBJECT_ID":"2025-276CT","EPOCH":"2026-07-21T02:56:20.298624","CLASSIFICATION_TYPE":"U","MEAN_MOTION":15.10185727,"ECCENTRICITY":0.00011823,"INCLINATION":97.418,"RA_OF_ASC_NODE":273.2678,"ARG_OF_PERICENTER":203.2926,"MEAN_ANOMALY":156.825,"EPHEMERIS_TYPE":0,"NORAD_CAT_ID":66755,"ELEMENT_SET_NO":999,"REV_AT_EPOCH":3545,"BSTAR":0.00024847674,"MEAN_MOTION_DOT":0.00003996,"MEAN_MOTION_DDOT":0},{"OBJECT_NAME":"ICEYE-X63","OBJECT_ID":"2026-004K","EPOCH":"2026-07-21T05:38:22.591680","CLASSIFICATION_TYPE":"U","MEAN_MOTION":14.88356346,"ECCENTRICITY":0.00050088,"INCLINATION":97.8017,"RA_OF_ASC_NODE":200.345,"ARG_OF_PERICENTER":36.3099,"MEAN_ANOMALY":323.8457,"EPHEMERIS_TYPE":0,"NORAD_CAT_ID":67372,"ELEMENT_SET_NO":999,"REV_AT_EPOCH":2836,"BSTAR":0.000075870716,"MEAN_MOTION_DOT":0.00000648,"MEAN_MOTION_DDOT":0},{"OBJECT_NAME":"ICEYE-X64","OBJECT_ID":"2026-004L","EPOCH":"2026-07-20T22:46:27.277248","CLASSIFICATION_TYPE":"U","MEAN_MOTION":14.87995742,"ECCENTRICITY":0.00068874,"INCLINATION":97.8031,"RA_OF_ASC_NODE":199.9802,"ARG_OF_PERICENTER":38.1687,"MEAN_ANOMALY":322.0016,"EPHEMERIS_TYPE":0,"NORAD_CAT_ID":67373,"ELEMENT_SET_NO":999,"REV_AT_EPOCH":2831,"BSTAR":0.000090310094,"MEAN_MOTION_DOT":0.00000774,"MEAN_MOTION_DDOT":0},{"OBJECT_NAME":"ICEYE-X71","OBJECT_ID":"2026-067CG","EPOCH":"2026-07-21T06:00:02.999808","CLASSIFICATION_TYPE":"U","MEAN_MOTION":14.91921372,"ECCENTRICITY":0.00005442,"INCLINATION":97.7619,"RA_OF_ASC_NODE":159.9619,"ARG_OF_PERICENTER":286.9819,"MEAN_ANOMALY":311.5842,"EPHEMERIS_TYPE":0,"NORAD_CAT_ID":68494,"ELEMENT_SET_NO":999,"REV_AT_EPOCH":580,"BSTAR":0.010646079,"MEAN_MOTION_DOT":0.00109306,"MEAN_MOTION_DDOT":0},{"OBJECT_NAME":"ICEYE-X73","OBJECT_ID":"2026-067CJ","EPOCH":"2026-07-20T21:27:26.073792","CLASSIFICATION_TYPE":"U","MEAN_MOTION":14.92364658,"ECCENTRICITY":0.00019754,"INCLINATION":97.7626,"RA_OF_ASC_NODE":159.7064,"ARG_OF_PERICENTER":139.6481,"MEAN_ANOMALY":220.4885,"EPHEMERIS_TYPE":0,"NORAD_CAT_ID":68496,"ELEMENT_SET_NO":999,"REV_AT_EPOCH":1675,"BSTAR":0.00017245035,"MEAN_MOTION_DOT":0.00001708,"MEAN_MOTION_DDOT":0},{"OBJECT_NAME":"ICEYE-X75","OBJECT_ID":"2026-067CK","EPOCH":"2026-07-20T19:58:18.563520","CLASSIFICATION_TYPE":"U","MEAN_MOTION":14.92181696,"ECCENTRICITY":0.00018269,"INCLINATION":97.761,"RA_OF_ASC_NODE":159.6101,"ARG_OF_PERICENTER":136.8876,"MEAN_ANOMALY":223.2487,"EPHEMERIS_TYPE":0,"NORAD_CAT_ID":68497,"ELEMENT_SET_NO":999,"REV_AT_EPOCH":1674,"BSTAR":0.000096256112,"MEAN_MOTION_DOT":0.00000924,"MEAN_MOTION_DDOT":0},{"OBJECT_NAME":"ICEYE-X74","OBJECT_ID":"2026-067CN","EPOCH":"2026-07-21T03:15:41.016096","CLASSIFICATION_TYPE":"U","MEAN_MOTION":14.9181028,"ECCENTRICITY":0.00003244,"INCLINATION":97.7636,"RA_OF_ASC_NODE":159.865,"ARG_OF_PERICENTER":285.2399,"MEAN_ANOMALY":74.8784,"EPHEMERIS_TYPE":0,"NORAD_CAT_ID":68500,"ELEMENT_SET_NO":999,"REV_AT_EPOCH":1678,"BSTAR":0.00014793003,"MEAN_MOTION_DOT":0.00001437,"MEAN_MOTION_DDOT":0},{"OBJECT_NAME":"ICEYE-X76","OBJECT_ID":"2026-067CQ","EPOCH":"2026-07-20T20:43:40.465056","CLASSIFICATION_TYPE":"U","MEAN_MOTION":14.91757593,"ECCENTRICITY":0.00004298,"INCLINATION":97.7643,"RA_OF_ASC_NODE":159.615,"ARG_OF_PERICENTER":237.6201,"MEAN_ANOMALY":122.4976,"EPHEMERIS_TYPE":0,"NORAD_CAT_ID":68502,"ELEMENT_SET_NO":999,"REV_AT_EPOCH":1674,"BSTAR":0.00004846759,"MEAN_MOTION_DOT":0.00000433,"MEAN_MOTION_DDOT":0}]}
