ICEYE-X53               
1 64584U 25135BJ  26202.29194582  .00002234  00000+0  18016-3 0  9994
2 64584  97.7352 318.9222 0002226 164.4773 195.6520 15.00912792 59191
ICEYE-X65               
1 66300U 25248H   26202.00313474  .00002011  00000+0  14476-3 0  9998
2 66300  45.4068 316.3569 0006000 228.3434 131.6935 15.07952440 40626
ICEYE-X66               
1 66301U 25248J   26201.33407998  .00002060  00000+0  14311-3 0  9991
2 66301  45.4023 318.9024 0005673 221.2592 138.7862 15.09198898 40510
ICEYE-X67               
1 66302U 25248K   26201.35882733  .00001772  00000+0  12540-3 0  9999
2 66302  45.4071 318.3531 0007078 221.9188 138.1153 15.09179672 40538
ICEYE-X58               
1 66751U 25276CP  26202.14888343  .00001876  00000+0  97374-4 0  9993
2 66751  97.4192 274.9049 0002749 189.0054 171.1131 15.17327754 35569
ICEYE-X59               
1 66752U 25276CQ  26202.14648977  .00003208  00000+0  25717-3 0  9993
2 66752  97.4403 271.9933 0001326 129.3488 230.7855 15.00788109 35362
ICEYE-X60               
1 66753U 25276CR  26200.76990424  .00001909  00000+0  11913-3 0  9996
2 66753  97.4203 272.4701 0000985 344.1732  15.9467 15.10668296 35287
ICEYE-X61               
1 66754U 25276CS  26202.16196124  .00002032  00000+0  10142-3 0  9999
2 66754  97.4187 275.0186 0002656 190.1403 169.9778 15.18631178 35570
ICEYE-X62               
1 66755U 25276CT  26202.12245716  .00003996  00000+0  24848-3 0  9996
2 66755  97.4180 273.2678 0001182 203.2926 156.8250 15.10185727 35452
ICEYE-X63               
1 67372U 26004K   26202.23498370  .00000648  00000+0  75871-4 0  9994
2 67372  97.8017 200.3450 0005008  36.3099 323.8457 14.88356346 28365
ICEYE-X64               
1 67373U 26004L   26201.94892682  .00000774  00000+0  90310-4 0  9991
2 67373  97.8031 199.9802 0006887  38.1687 322.0016 14.87995742 28310
ICEYE-X71               
1 68494U 26067CG  26202.25003472  .00109306  00000+0  10646-1 0  9993
2 68494  97.7619 159.9619 0000544 286.9819 311.5842 14.91921372  5804
ICEYE-X73               
1 68496U 26067CJ  26201.89405178  .00001708  00000+0  17245-3 0  9994
2 68496  97.7626 159.7064 0001975 139.6481 220.4885 14.92364658 16754
ICEYE-X75               
1 68497U 26067CK  26201.83215930  .00000924  00000+0  96256-4 0  9993
2 68497  97.7610 159.6101 0001826 136.8876 223.2487 14.92181696 16748
ICEYE-X74               
1 68500U 26067CN  26202.13589139  .00001437  00000+0  14793-3 0  9992
2 68500  97.7636 159.8650 0000324 285.2399  74.8784 14.91810280 16784
ICEYE-X76               
1 68502U 26067CQ  26201.86366279  .00000433  00000+0  48468-4 0  9993
2 68502  97.7643 159.6150 0000429 237.6201 122.4976 14.91757593 16742
